NORAD_CAT_ID,OBJECT_NAME,OBJECT_TYPE,EPOCH,MEAN_MOTION,ECCENTRICITY,INCLINATION,RA_OF_ASC_NODE,ARG_OF_PERICENTER,MEAN_ANOMALY,BSTAR,MEAN_MOTION_DOT,MEAN_MOTION_DDOT,TLE_LINE0,TLE_LINE1,TLE_LINE2,SEMIMAJOR_AXIS,PERIOD,APOGEE,PERIGEE,DECAYED
56785.0,STARLINK-5931,PAYLOAD,2023-12-28 19:30:05,14.98328882,0.0002117,70.0,206.3959,266.5339,93.5578,6.338e-06,-1.7e-07,0.0,0 STARLINK-5931,1 56785U 23078U   23362.81256396 -.00000017  00000-0  63380-5 0  9991,2 56785  70.0000 206.3959 0002117 266.5339  93.5578 14.98328882 32824,6950.196,96.107,573.533,570.59,0.0
56785.0,STARLINK-5931,PAYLOAD,2023-12-28 21:06:13,14.9833003,0.0002288,69.9996,206.2272,268.8851,91.2045,9.9958e-06,2.6e-07,0.0,0 STARLINK-5931,1 56785U 23078U   23362.87932299  .00000026  00000-0  99958-5 0  9999,2 56785  69.9996 206.2272 0002288 268.8851  91.2045 14.98330030 33266,6950.193,96.107,573.648,570.468,0.0
56785.0,STARLINK-5931,PAYLOAD,2023-12-29 14:43:42,14.98331935,0.0002248,69.9997,204.3759,270.0575,90.0327,-8.9666e-07,-1.04e-06,0.0,0 STARLINK-5931,1 56785U 23078U   23363.61368176 -.00000104  00000-0 -89666-6 0  9994,2 56785  69.9997 204.3759 0002248 270.0575  90.0327 14.98331935 33377,6950.187,96.107,573.614,570.49,0.0
56785.0,STARLINK-5931,PAYLOAD,2023-12-29 19:32:06,14.98330904,0.0002219,69.9998,203.8709,266.9213,93.1692,6.6183e-06,-1.4e-07,0.0,0 STARLINK-5931,1 56785U 23078U   23363.81396182 -.00000014  00000-0  66183-5 0  9991,2 56785  69.9998 203.8709 0002219 266.9213  93.1692 14.98330904 32977,6950.19,96.107,573.597,570.513,0.0
56785.0,STARLINK-5931,PAYLOAD,2023-12-29 21:08:14,14.9833116,0.0002205,69.9998,203.7026,265.628,94.4627,1.1613e-05,4.6e-07,0.0,0 STARLINK-5931,1 56785U 23078U   23363.88072134  .00000046  00000-0  11613-4 0  9997,2 56785  69.9998 203.7026 0002205 265.6280  94.4627 14.98331160 33410,6950.189,96.107,573.587,570.522,0.0
56785.0,STARLINK-5931,PAYLOAD,2023-12-30 14:45:43,14.9832949,0.0002315,69.9996,201.8508,272.383,87.7064,7.2457e-06,-6e-08,0.0,0 STARLINK-5931,1 56785U 23078U   23364.61508179 -.00000006  00000-0  72457-5 0  9993,2 56785  69.9996 201.8508 0002315 272.3830  87.7064 14.98329490 33525,6950.194,96.107,573.668,570.45,0.0
56785.0,STARLINK-5931,PAYLOAD,2023-12-30 19:34:07,14.98329813,0.0002302,69.9996,201.3458,271.7788,88.3107,1.1974e-05,5e-07,0.0,0 STARLINK-5931,1 56785U 23078U   23364.81536133  .00000050  00000-0  11974-4 0  9990,2 56785  69.9996 201.3458 0002302 271.7788  88.3107 14.98329813 33125,6950.193,96.107,573.658,570.459,0.0
56785.0,STARLINK-5931,PAYLOAD,2023-12-30 22:46:23,14.98330126,0.0002372,69.9994,201.0089,274.2075,85.8813,1.0486e-05,3.2e-07,0.0,0 STARLINK-5931,1 56785U 23078U   23364.94888110  .00000032  00000-0  10486-4 0  9996,2 56785  69.9994 201.0089 0002372 274.2075  85.8813 14.98330126 33578,6950.193,96.107,573.706,570.409,0.0
56785.0,STARLINK-5931,PAYLOAD,2023-12-31 19:36:06,14.98344216,0.0002473,69.9991,198.8197,275.0943,84.9934,0.00011085,1.23e-05,0.0,0 STARLINK-5931,1 56785U 23078U   23365.81674494  .00001230  00000-0  11085-3 0  9997,2 56785  69.9991 198.8197 0002473 275.0943  84.9934 14.98344216 33279,6950.149,96.106,573.733,570.295,0.0
56785.0,STARLINK-5931,PAYLOAD,2023-12-31 21:12:14,14.98346612,0.0002443,69.9992,198.6515,274.9321,85.1559,0.0001374,1.548e-05,0.0,0 STARLINK-5931,1 56785U 23078U   23365.88350193  .00001548  00000-0  13740-3 0  9993,2 56785  69.9992 198.6515 0002443 274.9321  85.1559 14.98346612 33714,6950.142,96.106,573.704,570.309,0.0
56785.0,STARLINK-5931,PAYLOAD,2024-01-01 11:37:27,14.9833356,0.0001874,70.001,197.139,259.1139,100.9809,2.5225e-05,2.08e-06,0.0,0 STARLINK-5931,1 56785U 23078U   24001.48434956  .00000208  00000-0  25225-4 0  9991,2 56785  70.0010 197.1390 0001874 259.1139 100.9809 14.98333560 33376,6950.182,96.107,573.349,570.744,0.0
56785.0,STARLINK-5931,PAYLOAD,2024-01-01 14:49:44,14.98327825,0.000195,70.0004,196.801,260.6292,99.4647,-5.6219e-05,-7.63e-06,0.0,0 STARLINK-5931,1 56785U 23078U   24001.61787514 -.00000763  00000-0 -56219-4 0  9992,2 56785  70.0004 196.8010 0001950 260.6292  99.4647 14.98327825 33825,6950.2,96.107,573.42,570.709,0.0
56785.0,STARLINK-5931,PAYLOAD,2024-01-01 19:38:08,14.9832365,0.0001922,70.0005,196.2965,261.8661,98.228,-7.2749e-05,-9.61e-06,0.0,0 STARLINK-5931,1 56785U 23078U   24001.81815850 -.00000961  00000-0 -72749-4 0  9995,2 56785  70.0005 196.2965 0001922 261.8661  98.2280 14.98323650 33429,6950.213,96.107,573.413,570.742,0.0
56785.0,STARLINK-5931,PAYLOAD,2024-01-01 22:50:25,14.98322553,0.0002033,70.0003,195.9595,268.7755,91.3171,-9.7642e-05,-1.257e-05,0.0,0 STARLINK-5931,1 56785U 23078U   24001.95168046 -.00001257  00000-0 -97642-4 0  9996,2 56785  70.0003 195.9595 0002033 268.7755  91.3171 14.98322553 33879,6950.216,96.107,573.494,570.668,0.0
56785.0,STARLINK-5931,PAYLOAD,2024-01-02 14:51:45,14.9833623,0.0002178,70.0,194.2768,269.3004,90.7905,-0.00015197,-1.906e-05,0.0,0 STARLINK-5931,1 56785U 23078U   24002.61927281 -.00001906  00000-0 -15197-3 0  9999,2 56785  70.0000 194.2768 0002178 269.3004  90.7905 14.98336230 33970,6950.174,96.107,573.552,570.525,0.0
56785.0,STARLINK-5931,PAYLOAD,2024-01-02 18:04:01,14.98335544,0.000218,70.0,193.9401,269.0392,91.0517,-0.00015063,-1.89e-05,0.0,0 STARLINK-5931,1 56785U 23078U   24002.75279273 -.00001890  00000-0 -15063-3 0  9999,2 56785  70.0000 193.9401 0002180 269.0392  91.0517 14.98335544 33565,6950.176,96.107,573.556,570.526,0.0
56785.0,STARLINK-5931,PAYLOAD,2024-01-02 21:16:17,14.98334305,0.0002459,69.9995,193.6033,271.8409,88.2468,-0.00015026,-1.885e-05,0.0,0 STARLINK-5931,1 56785U 23078U   24002.88631305 -.00001885  00000-0 -15026-3 0  9994,2 56785  69.9995 193.6033 0002459 271.8409  88.2468 14.98334305 34010,6950.18,96.107,573.754,570.336,0.0
56785.0,STARLINK-5931,PAYLOAD,2024-01-03 11:41:30,14.98322258,0.0002475,69.9993,192.0885,273.9772,86.1104,3.3058e-05,3.01e-06,0.0,0 STARLINK-5931,1 56785U 23078U   24003.48715572  .00000301  00000-0  33058-4 0  9996,2 56785  69.9993 192.0885 0002475 273.9772  86.1104 14.98322258 33679,6950.217,96.107,573.802,570.362,0.0
56785.0,STARLINK-5931,PAYLOAD,2024-01-03 13:17:38,14.9832237,0.0002473,69.9993,191.9202,273.8625,86.2251,3.3468e-05,3.06e-06,0.0,0 STARLINK-5931,1 56785U 23078U   24003.55391592  .00000306  00000-0  33468-4 0  9996,2 56785  69.9993 191.9202 0002473 273.8625  86.2251 14.98322370 34113,6950.216,96.107,573.8,570.363,0.0
56785.0,STARLINK-5931,PAYLOAD,2024-01-03 19:42:10,14.98329255,0.0002331,69.9996,191.2468,274.2262,85.8631,0.00011187,1.242e-05,0.0,0 STARLINK-5931,1 56785U 23078U   24003.82095035  .00001242  00000-0  11187-3 0  9992,2 56785  69.9996 191.2468 0002331 274.2262  85.8631 14.98329255 33720,6950.195,96.107,573.68,570.44,0.0
56785.0,STARLINK-5931,PAYLOAD,2024-01-03 21:18:18,14.98330225,0.0002325,69.9996,191.0785,274.4365,85.6529,0.00012106,1.352e-05,0.0,0 STARLINK-5931,1 56785U 23078U   24003.88770953  .00001352  00000-0  12106-3 0  9991,2 56785  69.9996 191.0785 0002325 274.4365  85.6529 14.98330225 34161,6950.192,96.107,573.673,570.441,0.0
56785.0,STARLINK-5931,PAYLOAD,2024-01-04 13:19:39,14.98323086,0.0002059,70.0002,189.3956,271.0393,89.053,1.548e-05,9.2e-07,0.0,0 STARLINK-5931,1 56785U 23078U   24004.55531829  .00000092  00000-0  15480-4 0  9992,2 56785  70.0002 189.3956 0002059 271.0393  89.0530 14.98323086 34268,6950.214,96.107,573.51,570.648,0.0
56785.0,STARLINK-5931,PAYLOAD,2024-01-04 19:44:12,14.98318606,0.0002158,69.9998,188.7223,267.8379,92.2533,-4.4904e-05,-6.28e-06,0.0,0 STARLINK-5931,1 56785U 23078U   24004.82236394 -.00000628  00000-0 -44904-4 0  9991,2 56785  69.9998 188.7223 0002158 267.8379  92.2533 14.98318606 33873,6950.228,96.108,573.593,570.593,0.0
56785.0,STARLINK-5931,PAYLOAD,2024-01-04 21:20:20,14.98318365,0.0002163,69.9998,188.554,268.3471,91.744,-4.7623e-05,-6.61e-06,0.0,0 STARLINK-5931,1 56785U 23078U   24004.88912461 -.00000661  00000-0 -47623-4 0  9991,2 56785  69.9998 188.5540 0002163 268.3471  91.7440 14.98318365 34311,6950.229,96.108,573.597,570.591,0.0
56785.0,STARLINK-5931,PAYLOAD,2024-01-05 14:57:48,14.98327143,0.0002453,69.999,186.7014,276.0212,84.0668,-7.2518e-05,-9.58e-06,0.0,0 STARLINK-5931,1 56785U 23078U   24005.62348324 -.00000958  00000-0 -72518-4 0  9995,2 56785  69.9990 186.7014 0002453 276.0212  84.0668 14.98327143 34423,6950.202,96.107,573.772,570.362,0.0
56785.0,STARLINK-5931,PAYLOAD,2024-01-05 18:10:05,14.98326845,0.0002434,69.9992,186.3649,275.4232,84.6649,-6.9761e-05,-9.25e-06,0.0,0 STARLINK-5931,1 56785U 23078U   24005.75700361 -.00000925  00000-0 -69761-4 0  9992,2 56785  69.9992 186.3649 0002434 275.4232  84.6649 14.98326845 34017,6950.203,96.107,573.759,570.376,0.0
56785.0,STARLINK-5931,PAYLOAD,2024-01-05 21:22:21,14.98327155,0.0002426,69.9992,186.0284,275.1941,84.8941,-6.2009e-05,-8.33e-06,0.0,0 STARLINK-5931,1 56785U 23078U   24005.89052348 -.00000833  00000-0 -62009-4 0  9998,2 56785  69.9992 186.0284 0002426 275.1941  84.8941 14.98327155 34465,6950.202,96.107,573.753,570.381,0.0
56785.0,STARLINK-5931,PAYLOAD,2024-01-06 11:47:33,14.98323075,0.0002501,69.9992,184.5141,273.3741,86.7132,5.4608e-05,5.59e-06,0.0,0 STARLINK-5931,1 56785U 23078U   24006.49136395  .00000559  00000-0  54608-4 0  9999,2 56785  69.9992 184.5141 0002501 273.3741  86.7132 14.98323075 34552,6950.214,96.107,573.818,570.341,0.0
56785.0,STARLINK-5931,PAYLOAD,2024-01-06 19:48:14,14.98324811,0.0002453,69.9994,183.6728,272.2268,87.861,7.1496e-05,7.6e-06,0.0,0 STARLINK-5931,1 56785U 23078U   24006.82516362  .00000760  00000-0  71496-4 0  9990,2 56785  69.9994 183.6728 0002453 272.2268  87.8610 14.98324811 34173,6950.209,96.107,573.779,570.369,0.0
56785.0,STARLINK-5931,PAYLOAD,2024-01-06 21:24:22,14.9832487,0.0002453,69.9994,183.5045,272.2596,87.8282,7.0526e-05,7.49e-06,0.0,0 STARLINK-5931,1 56785U 23078U   24006.89192381  .00000749  00000-0  70526-4 0  9998,2 56785  69.9994 183.5045 0002453 272.2596  87.8282 14.98324870 34617,6950.209,96.107,573.779,570.369,0.0
